{
  "norad_id": 64116,
  "name": "STARLINK-34080",
  "history": [
    {
      "epoch": "2026-03-28T21:11:43.362528",
      "apogee_km": 476.09591907654067,
      "perigee_km": 474.2685500358384,
      "latitude_deg": 25.728307527595916,
      "longitude_deg": -43.61848607985303,
      "semi_major_axis_km": 6853.319234556189,
      "eccentricity": 0.00013332,
      "inclination_deg": 53.1593,
      "raan_deg": 297.426,
      "arg_perigee_deg": 81.9498,
      "mean_anomaly_deg": 278.1654,
      "mean_motion_rev_day": 15.30210997
    },
    {
      "epoch": "2026-03-29T00:19:49.714176",
      "apogee_km": 475.96762484526334,
      "perigee_km": 474.4050671223795,
      "latitude_deg": -53.1542413573833,
      "longitude_deg": -31.07809535996057,
      "semi_major_axis_km": 6853.323345983821,
      "eccentricity": 0.000114,
      "inclination_deg": 53.1595,
      "raan_deg": 296.8201,
      "arg_perigee_deg": 82.7102,
      "mean_anomaly_deg": 277.4028,
      "mean_motion_rev_day": 15.3020962
    }
  ]
}